#aV2010  7 26  0  0   .00000000      96 DD+AD WGS84 FIT  NGA
## 1594  86400.00000000   900.00000000 55403  .0000000000000
+   31     1  2  3  4  5  6  7  8  9 10 11 12 13 14 15 16 17
+         18 19 20 21 22 23 24 26 27 28 29 30 31 32  0  0  0
+          0  0  0  0  0  0  0  0  0  0  0  0  0  0  0  0  0
+          0  0  0  0  0  0  0  0  0  0  0  0  0  0  0  0  0
+          0  0  0  0  0  0  0  0  0  0  0  0  0  0  0  0  0
++         0  0  0  0  0  0  0  0  0  0  0  0  0  0  0  0  0
++         0  0  0  0  0  0  0  0  0  0  0  0  0  0  0  0  0
++         0  0  0  0  0  0  0  0  0  0  0  0  0  0  0  0  0
++         0  0  0  0  0  0  0  0  0  0  0  0  0  0  0  0  0
++         0  0  0  0  0  0  0  0  0  0  0  0  0  0  0  0  0
%c cc cc ccc ccc cccc cccc cccc cccc ccccc ccccc ccccc ccccc
%c cc cc ccc ccc cccc cccc cccc cccc ccccc ccccc ccccc ccccc
%f  0.0000000  0.000000000  0.00000000000  0.000000000000000
%f  0.0000000  0.000000000  0.00000000000  0.000000000000000
%i    0    0    0    0      0      0      0      0         0
%i    0    0    0    0      0      0      0      0         0
/*      NGA, ST. LOUIS,MO.                                  
/*   EPHEMERIS COMPUTED FROM  3 DAYS OF DATA                
/* CCCCCCCCCCCCCCCCCCCCCCCCCCCCCCCCCCCCCCCCCCCCCCCCCCCCCCCCC
/* CCCCCCCCCCCCCCCCCCCCCCCCCCCCCCCCCCCCCCCCCCCCCCCCCCCCCCCCC
*  2010  7 26 22 45   .00000000                                                 
P  1  15264.884650   8453.606574 -20175.453618   -145.360067                    
V  1 -22706.085548  11229.255992 -12421.313621      -.040698                    
P  2 -13901.652056 -10430.212799 -20206.458511    276.009945                    
V  2   3247.180913 -25412.541339  10426.108933       .029868                    
P  3  24528.665861   8726.993237   5723.892744    586.862804                    
V  3   5044.826536   6790.533236 -29653.150759       .050800                    
P  4  -7521.115525 -21601.929053 -13366.710371    133.311715                    
V  4   4756.097218 -16469.682162  24613.751023       .080116                    
P  5 -23105.964096    167.183435 -13187.694375    -17.726213                    
V  5  14320.684039  -8882.928085 -25139.993858      -.036110                    
P  6  23195.317881  12906.338998   2537.202081    557.845044                    
V  6    634.313399   4536.548652 -30852.069026      -.144857                    
P  7   6240.031462 -25218.549606  -5046.665996     -1.839740                    
V  7   1835.844584   6658.434049 -31256.424645      -.001358                    
P  8   -307.700680 -25224.251465   7349.234939      6.252842                    
V  8   3760.899419  -8929.929035 -30964.211039       .001015                    
P  9 -13808.210013  11033.027830  19269.541365     20.656788                    
V  9    862.887626 -25629.974594  14900.561415       .022603                    
P 10 -14914.076931  -9330.237852 -20179.063391    -48.040761                    
V 10  22845.268223 -10559.297064 -11767.486274      -.009502                    
P 11  12105.119414 -15654.418871  17290.012704    -78.288734                    
V 11   5969.366547  22317.750206  16147.962566      -.025635                    
P 12 -23459.420804  11998.718684  -2546.653732    -89.491665                    
V 12  -4049.230493  -1079.791734  31877.802589       .039226                    
P 13   5163.239691 -14326.736143 -21893.970389    300.987362                    
V 13  21174.520186  17371.358954  -6456.782241      -.007262                    
P 14  13684.655407  20203.571211  10801.929994     72.010996                    
V 14 -11467.692041  -7154.541915  28147.304023       .039902                    
P 15 -21545.250347  -1645.822632  15541.968426   -233.429371                    
V 15 -14929.295181 -12979.838821 -21972.030898       .059555                    
P 16  20312.991906   4009.657949 -16763.746192    -93.409767                    
V 16 -19084.112512   9357.794895 -20572.291367      -.035858                    
P 17 -11560.839780 -20276.160991  12979.372055    163.805578                    
V 17  14157.156854   8204.426289  25427.977074       .017602                    
P 18  -9826.561199  17802.239643  17170.413807     83.250726                    
V 18 -20711.611990   6160.950367 -18932.437830       .023034                    
P 19  20920.092138   2800.139590  16340.502290    -52.758293                    
V 19  14518.489884  14689.847956 -20821.161140      -.029958                    
P 20  22324.303498 -13868.253330  -3771.665904     52.887138                    
V 20   5742.900798   1186.965488  30747.477801      -.004591                    
P 21  -3950.149700  25870.624393  -1186.137903    -76.706429                    
V 21  -4032.124018  -2444.271461 -31460.691811      -.026613                    
P 22   3090.318733  15767.848887  21311.000128    166.634844                    
V 22 -24933.184007   9781.871381  -3747.985361      -.006614                    
P 23  14266.124457  -7565.288322 -21165.767575    361.267749                    
V 23  21175.550723  16342.753236   8114.376175      -.016720                    
P 24  10278.813052  16978.572564  17863.779832    307.701710                    
V 24  -5143.712057  21912.957196 -17702.900406       .031134                    
P 26 -22343.871461  -9765.288211  10437.166261    -87.946650                    
V 26  -9713.486166 -10076.887722 -28319.463300      -.063703                    
P 27 -15006.698564   5625.029270  21828.665631    173.913381                    
V 27    874.089389 -26105.144924   7746.751221       .036752                    
P 28     47.936663 -15972.180957  21655.699206     -9.322475                    
V 28  24732.273681  -9246.106166  -7313.008945       .012603                    
P 29  -5930.113103  14371.941919 -21450.150916    137.341729                    
V 29 -21913.648652 -16521.246405  -4949.373772       .026848                    
P 30 -15313.734137  17736.399639 -12867.128272    264.016830                    
V 30 -15099.069456   4935.631981  25626.798476       .033340                    
P 31   8166.172175  19907.089155 -15250.766996    -21.729851                    
V 31  -3973.292758  19450.173260  23124.474305       .026846                    
P 32  25378.609552  -6772.715834   2645.224265    -47.030437                    
V 32  -1797.954056   3957.984532  31695.343876      -.087388                    
EOF
